NORAD_CAT_ID,OBJECT_NAME,OBJECT_TYPE,EPOCH,MEAN_MOTION,ECCENTRICITY,INCLINATION,RA_OF_ASC_NODE,ARG_OF_PERICENTER,MEAN_ANOMALY,BSTAR,MEAN_MOTION_DOT,MEAN_MOTION_DDOT,TLE_LINE0,TLE_LINE1,TLE_LINE2,SEMIMAJOR_AXIS,PERIOD,APOGEE,PERIGEE,DECAYED
52600.0,STARLINK-4026,PAYLOAD,2022-12-22 09:58:03,15.0885426,0.0002684,53.2179,146.158,46.5488,313.5727,-0.00012126,-2.219e-05,0.0,0 STARLINK-4026,1 52600U 22052C   22356.41532336 -.00002219  00000-0 -12126-3 0  9990,2 52600  53.2179 146.1580 0002684  46.5488 313.5727 15.08854260 34534,6917.837,95.437,541.559,537.845,0.0
52600.0,STARLINK-4026,PAYLOAD,2022-12-22 13:08:51,15.08798815,0.0002226,53.2179,145.5635,48.7804,311.3379,0.00067333,0.00010432,0.0,0 STARLINK-4026,1 52600U 22052C   22356.54781733  .00010432  00000-0  67333-3 0  9995,2 52600  53.2179 145.5635 0002226  48.7804 311.3379 15.08798815 34123,6918.005999999999,95.44,541.411,538.331,0.0
52600.0,STARLINK-4026,PAYLOAD,2022-12-22 16:19:36,15.08846062,0.0002646,53.2179,144.9684,48.7763,311.3456,4.8726e-05,4.87e-06,0.0,0 STARLINK-4026,1 52600U 22052C   22356.68028305  .00000487  00000-0  48726-4 0  9994,2 52600  53.2179 144.9684 0002646  48.7763 311.3456 15.08846062 34146,6917.861999999999,95.437,541.557,537.896,0.0
52600.0,STARLINK-4026,PAYLOAD,2022-12-23 12:59:37,15.08836059,0.0002694,53.2179,141.1031,49.7216,310.4012,8.792e-05,1.111e-05,0.0,0 STARLINK-4026,1 52600U 22052C   22357.54140748  .00001111  00000-0  87920-4 0  9990,2 52600  53.2179 141.1031 0002694  49.7216 310.4012 15.08836059 34275,6917.892,95.438,541.621,537.894,0.0
52600.0,STARLINK-4026,PAYLOAD,2022-12-23 16:10:23,15.08839667,0.0002664,53.2178,140.5083,50.2571,309.8655,0.00011335,1.516e-05,0.0,0 STARLINK-4026,1 52600U 22052C   22357.67388459  .00001516  00000-0  11335-3 0  9992,2 52600  53.2178 140.5083 0002664  50.2571 309.8655 15.08839667 34725,6917.880999999999,95.438,541.589,537.903,0.0
52600.0,STARLINK-4026,PAYLOAD,2022-12-24 03:18:04,15.08848292,0.0002633,53.2181,138.4265,50.9917,309.131,0.00012983,1.779e-05,0.0,0 STARLINK-4026,1 52600U 22052C   22358.13755779  .00001779  00000-0  12983-3 0  9998,2 52600  53.2181 138.4265 0002633  50.9917 309.1310 15.08848292 34369,6917.855,95.437,541.5419999999998,537.899,0.0
52600.0,STARLINK-4026,PAYLOAD,2022-12-24 09:39:37,15.088462699999996,0.0002682,53.2179,137.2371,55.0029,305.1215,5.5987e-05,6.03e-06,0.0,0 STARLINK-4026,1 52600U 22052C   22358.40252053  .00000603  00000-0  55987-4 0  9992,2 52600  53.2179 137.2371 0002682  55.0029 305.1215 15.08846270 34831,6917.861,95.437,541.582,537.871,0.0
52600.0,STARLINK-4026,PAYLOAD,2022-12-24 16:01:10,15.08842303,0.0002765,53.217,136.0493,49.5258,310.5975,1.4736e-05,-5.4e-07,0.0,0 STARLINK-4026,1 52600U 22052C   22358.66748327 -.00000054  00000-0  14736-4 0  9992,2 52600  53.2170 136.0493 0002765  49.5258 310.5975 15.08842303 34441,6917.873000000001,95.437,541.651,537.826,0.0
52600.0,STARLINK-4026,PAYLOAD,2022-12-25 09:30:24,15.08840645,0.0002729,53.217,132.7794,45.9036,314.218,5.147e-05,5.31e-06,0.0,0 STARLINK-4026,1 52600U 22052C   22359.39612080  .00000531  00000-0  51470-4 0  9994,2 52600  53.2170 132.7794 0002729  45.9036 314.2180 15.08840645 34987,6917.878000000002,95.438,541.631,537.856,0.0
52600.0,STARLINK-4026,PAYLOAD,2022-12-25 17:27:21,15.08826974,0.0002614,53.2187,131.29,44.0317,316.0883,-0.00011827,-2.17e-05,0.0,0 STARLINK-4026,1 52600U 22052C   22359.72733603 -.00002170  00000-0 -11827-3 0  9990,2 52600  53.2187 131.2900 0002614  44.0317 316.0883 15.08826974 34601,6917.92,95.438,541.594,537.977,0.0
52600.0,STARLINK-4026,PAYLOAD,2022-12-26 01:24:17,15.08831815,0.0002631,53.2196,129.8037,45.508,314.6127,-9.5782e-05,-1.812e-05,0.0,0 STARLINK-4026,1 52600U 22052C   22360.05853380 -.00001812  00000-0 -95782-4 0  9998,2 52600  53.2196 129.8037 0002631  45.5080 314.6127 15.08831815 35085,6917.905,95.438,541.591,537.95,0.0
52600.0,STARLINK-4026,PAYLOAD,2022-12-26 17:18:08,15.08839363,0.0002651,53.2185,126.8298,44.115,316.0053,3.4405e-05,2.59e-06,0.0,0 STARLINK-4026,1 52600U 22052C   22360.72092714  .00000259  00000-0  34405-4 0  9995,2 52600  53.2185 126.8298 0002651  44.1150 316.0053 15.08839363 34757,6917.882,95.438,541.581,537.913,0.0
52600.0,STARLINK-4026,PAYLOAD,2022-12-27 01:15:01,15.0890839,0.0002341,53.2186,125.3437,50.9044,309.2156,-0.00072418,-0.00011817,0.0,0 STARLINK-4026,1 52600U 22052C   22361.05210080 -.00011817  00000-0 -72418-3 0  9999,2 52600  53.2186 125.3437 0002341  50.9044 309.2156 15.08908390 34801,6917.670999999999,95.433,541.156,537.9169999999998,0.0
52600.0,STARLINK-4026,PAYLOAD,2022-12-27 10:47:22,15.08838263,0.0002597,53.2177,123.5596,44.13399999999999,315.9859,0.00022414,3.281e-05,0.0,0 STARLINK-4026,1 52600U 22052C   22361.44956105  .00003281  00000-0  22414-3 0  9992,2 52600  53.2177 123.5596 0002597  44.1340 315.9859 15.08838263 34865,6917.886,95.438,541.547,537.9540000000002,0.0
52600.0,STARLINK-4026,PAYLOAD,2022-12-29 00:56:38,15.08841246,0.000252,53.2173,116.4234,41.6228,318.4955,-3.8659e-05,-9.04e-06,0.0,0 STARLINK-4026,1 52600U 22052C   22363.03932947 -.00000904  00000-0 -38659-4 0  9997,2 52600  53.2173 116.4234 0002520  41.6228 318.4955 15.08841246 35102,6917.877,95.437,541.485,537.998,0.0
52600.0,STARLINK-4026,PAYLOAD,2022-12-29 07:18:11,15.08832997,0.0002671,53.2177,115.2347,42.8667,317.2533,-9.6945e-05,-1.831e-05,0.0,0 STARLINK-4026,1 52600U 22052C   22363.30429756 -.00001831  00000-0 -96945-4 0  9998,2 52600  53.2177 115.2347 0002671  42.8667 317.2533 15.08832997 35578,6917.901999999999,95.438,541.615,537.919,0.0
52600.0,STARLINK-4026,PAYLOAD,2022-12-29 13:39:44,15.08829798,0.0002568,53.2176,114.0444,43.8197,316.2999,-0.00012003,-2.198e-05,0.0,0 STARLINK-4026,1 52600U 22052C   22363.56926089 -.00002198  00000-0 -12003-3 0  9996,2 52600  53.2176 114.0444 0002568  43.8197 316.2999 15.08829798 35183,6917.9119999999975,95.438,541.553,538.0,0.0
52600.0,STARLINK-4026,PAYLOAD,2022-12-30 13:30:30,15.08838204,0.0002368,53.2178,109.5831,40.8241,319.2928,0.00018271,2.621e-05,0.0,0 STARLINK-4026,1 52600U 22052C   22364.56284734  .00002621  00000-0  18271-3 0  9993,2 52600  53.2178 109.5831 0002368  40.8241 319.2928 15.08838204 35333,6917.886,95.438,541.389,538.113,0.0
52600.0,STARLINK-4026,PAYLOAD,2022-12-30 16:41:15,15.08852459,0.000259,53.2191,108.9908,36.9854,323.1317,0.00030359,4.548e-05,0.0,0 STARLINK-4026,1 52600U 22052C   22364.69531636  .00004548  00000-0  30359-3 0  9994,2 52600  53.2191 108.9908 0002590  36.9854 323.1317 15.08852459 35355,6917.842,95.437,541.499,537.9159999999998,0.0
52600.0,STARLINK-4026,PAYLOAD,2022-12-31 13:21:16,15.08850117,0.0002609,53.2192,105.125,38.4959,321.6219,0.00026276,3.897e-05,0.0,0 STARLINK-4026,1 52600U 22052C   22365.55643524  .00003897  00000-0  26276-3 0  9999,2 52600  53.2192 105.1250 0002609  38.4959 321.6219 15.08850117 35486,6917.849,95.437,541.519,537.91,0.0
52600.0,STARLINK-4026,PAYLOAD,2023-01-01 06:50:31,15.08846242,0.0002568,53.2194,101.8525,39.2074,320.9104,-0.00013859,-2.494e-05,0.0,0 STARLINK-4026,1 52600U 22052C   23001.28508989 -.00002494  00000-0 -13859-3 0  9999,2 52600  53.2194 101.8525 0002568  39.2074 320.9104 15.08846242 35598,6917.861,95.437,541.503,537.95,0.0
52600.0,STARLINK-4026,PAYLOAD,2023-01-01 13:12:05,15.0883225,0.0002512,53.2194,100.6654,30.6283,329.4856,-0.00027354,-4.638e-05,0.0,0 STARLINK-4026,1 52600U 22052C   23001.55006184 -.00004638  00000-0 -27354-3 0  9996,2 52600  53.2194 100.6654 0002512  30.6283 329.4856 15.08832250 35631,6917.904,95.438,541.507,538.031,0.0
52600.0,STARLINK-4026,PAYLOAD,2023-01-02 14:38:15,15.08836718,0.0002602,53.2206,95.9101,34.554,325.5621,-7.144600000000001e-05,-1.425e-05,0.0,0 STARLINK-4026,1 52600U 22052C   23002.60989883 -.00001425  00000-0 -71446-4 0  9992,2 52600  53.2206  95.9101 0002602  34.5540 325.5621 15.08836718 35794,6917.89,95.438,541.555,537.955,0.0
52600.0,STARLINK-4026,PAYLOAD,2023-01-02 16:13:38,15.08841315,0.0002628,53.2191,95.6099,31.3975,328.7174,-5.6347e-05,-1.185e-05,0.0,0 STARLINK-4026,1 52600U 22052C   23002.67613569 -.00001185  00000-0 -56347-4 0  9990,2 52600  53.2191  95.6099 0002628  31.3975 328.7174 15.08841315 36232,6917.876,95.437,541.559,537.923,0.0
52600.0,STARLINK-4026,PAYLOAD,2023-01-03 06:32:06,15.08828204,0.0002501,53.2192,92.9341,33.9705,326.1447,0.0002177,3.177e-05,0.0,0 STARLINK-4026,1 52600U 22052C   23003.27230297  .00003177  00000-0  21770-3 0  9992,2 52600  53.2192  92.9341 0002501  33.9705 326.1447 15.08828204 36329,6917.916,95.438,541.512,538.0509999999998,0.0
52600.0,STARLINK-4026,PAYLOAD,2023-01-03 16:04:26,15.08833915,0.0002605,53.2187,91.15,34.7833,325.3329,0.00026471,3.926e-05,0.0,0 STARLINK-4026,1 52600U 22052C   23003.66974690  .00003926  00000-0  26471-3 0  9992,2 52600  53.2187  91.1500 0002605  34.7833 325.3329 15.08833915 35950,6917.899,95.438,541.566,537.962,0.0
52600.0,STARLINK-4026,PAYLOAD,2023-01-04 11:09:03,15.08842282,0.0002674,53.2183,87.5821,34.6998,325.4169,0.00013632,1.882e-05,0.0,0 STARLINK-4026,1 52600U 22052C   23004.46462491  .00001882  00000-0  13632-3 0  9996,2 52600  53.2183  87.5821 0002674  34.6998 325.4169 15.08842282 36500,6917.873000000001,95.437,541.5880000000002,537.889,0.0
52600.0,STARLINK-4026,PAYLOAD,2023-01-04 12:44:26,15.08844258,0.000268,53.2183,87.2852,33.7345,326.3817,0.00016793,2.386e-05,0.0,0 STARLINK-4026,1 52600U 22052C   23004.53086387  .00002386  00000-0  16793-3 0  9991,2 52600  53.2183  87.2852 0002680  33.7345 326.3817 15.08844258 36510,6917.8669999999975,95.437,541.586,537.878,0.0
52600.0,STARLINK-4026,PAYLOAD,2023-01-04 22:16:44,15.08859863,0.0002663,53.2182,85.5003,32.6251,327.4905,0.00029753,4.453e-05,0.0,0 STARLINK-4026,1 52600U 22052C   23004.92829353  .00004453  00000-0  29753-3 0  9999,2 52600  53.2182  85.5003 0002663  32.6251 327.4905 15.08859863 36140,6917.82,95.436,541.5269999999998,537.842,0.0
